OBJECT_NAME,OBJECT_ID,EPOCH,MEAN_MOTION,ECCENTRICITY,INCLINATION,RA_OF_ASC_NODE,ARG_OF_PERICENTER,MEAN_ANOMALY,EPHEMERIS_TYPE,CLASSIFICATION_TYPE,NORAD_CAT_ID,ELEMENT_SET_NO,REV_AT_EPOCH,BSTAR,MEAN_MOTION_DOT,MEAN_MOTION_DDOT
2023-085E,2023-085E,2025-10-03T14:35:19.705344,15.53810590,.00039831,97.4747,31.0102,195.5621,164.5510,0,U,57008,999,12814,.17740038E-2,.11531E-2,0
2023-085F,2023-085F,2025-10-03T15:05:13.547328,15.51497589,.00043072,97.4789,30.7692,204.8333,155.2713,0,U,57009,999,12810,.17224367E-2,.102889E-2,0
2023-085G,2023-085G,2025-10-03T14:19:22.344096,15.59043975,.00038877,97.4781,32.5536,198.1790,161.9328,0,U,57010,999,12823,.17626471E-2,.13939E-2,0
2023-085H,2023-085H,2025-10-03T14:15:25.495776,15.47417043,.00044601,97.4757,29.0908,201.5004,158.6059,0,U,57011,999,12802,.16461643E-2,.8504E-3,0
2023-085J,2023-085J,2025-10-03T15:03:22.199328,15.25279465,.00068709,97.4831,22.0874,219.6887,140.3849,0,U,57012,999,12753,.99288048E-3,.24987E-3,0
2023-085K,2023-085K,2025-10-03T15:19:51.976128,15.55925500,.00036776,97.4758,31.6818,201.7775,158.3324,0,U,57013,999,5839,.17695149E-2,.124373E-2,0
2023-085L,2023-085L,2025-10-03T14:43:48.322272,15.23400730,.00050588,97.4865,21.1843,221.5448,138.5405,0,U,57014,999,12744,.96063959E-3,.22844E-3,0
2023-085M,2023-085M,2025-10-03T15:39:23.198976,15.56896418,.00036866,97.4838,32.6967,209.4357,150.6691,0,U,57015,999,12821,.17260546E-2,.125761E-2,0
2023-085N,2023-085N,2025-10-03T15:15:52.972992,16.05264763,.00065671,97.4732,39.3841,265.8211,94.2320,0,U,57016,999,12865,.22329744E-2,.1508418E-1,.14495657E-2
2023-085P,2023-085P,2025-10-03T14:52:55.591104,15.50867279,.00039033,97.4785,30.5396,202.3988,157.7093,0,U,57017,999,12810,.17407943E-2,.101666E-2,0
2023-085R,2023-085R,2025-10-03T14:59:26.512224,15.53900840,.00048205,97.4766,31.0263,206.6499,153.4507,0,U,57019,999,12815,.17637916E-2,.115032E-2,0
2023-085T,2023-085T,2025-10-04T03:46:22.962144,15.80509609,.0004351,97.4676,37.0901,230.8944,129.1937,0,U,57021,999,12860,.60893E-3,.116487E-2,0
2023-085V,2023-085V,2025-10-03T15:26:11.342112,15.24658035,.00060779,97.4845,21.4826,253.0247,107.0324,0,U,57023,999,12748,.10299755E-2,.25444E-3,0
2023-085W,2023-085W,2025-10-03T14:48:24.487776,15.99405502,.00062442,97.4700,39.0940,264.5921,95.4644,0,U,57024,999,12863,.21043207E-2,.1025059E-1,.51773325E-3
2023-085X,2023-085X,2025-10-03T18:51:03.485664,16.13851869,.0007824,97.4557,39.4514,263.7796,96.2599,0,U,57025,999,12870,.26694E-2,.2607491E-1,.12122E-1
2023-085Y,2023-085Y,2025-10-03T15:26:14.512992,15.26004071,.00057172,97.4845,22.5501,249.4196,110.6429,0,U,57026,999,12756,.10321221E-2,.26548E-3,0
2023-085Z,2023-085Z,2025-10-03T13:52:44.122080,15.90945488,.00056697,97.4673,37.5430,261.8754,98.1877,0,U,57027,999,12857,.2084401E-2,.649068E-2,.16889876E-3
2023-085AA,2023-085AA,2025-10-03T01:41:46.652640,16.14862027,.00085483,97.4706,39.0481,259.0220,101.0104,0,U,57028,999,12859,.26194626E-2,.2623982E-1,.1454385E-1
2023-085AC,2023-085AC,2025-10-03T14:29:38.503104,15.71049204,.00043143,97.4716,35.1656,221.9813,138.1120,0,U,57030,999,12843,.17467774E-2,.224408E-2,0
2023-085AD,2023-085AD,2025-10-03T14:27:58.893408,15.25434496,.00096452,97.4838,22.0765,266.9963,93.0171,0,U,57031,999,12753,.10071218E-2,.25482E-3,0
2023-085AE,2023-085AE,2025-10-03T14:25:27.721056,16.03135910,.00071542,97.4655,39.1486,268.3739,91.6721,0,U,57032,999,12864,.22801248E-2,.1365317E-1,.1083439E-2
2023-085AF,2023-085AF,2025-10-03T15:04:17.535936,15.50942145,.00055028,97.4837,32.3094,219.2997,140.7855,0,U,57033,999,12820,.13326295E-2,.77799E-3,0
2023-085AG,2023-085AG,2025-10-03T15:23:40.772832,15.96348720,.00068606,97.4719,38.8408,267.6249,92.4242,0,U,57034,999,12862,.21061709E-2,.86944E-2,.34169055E-3
2023-085AH,2023-085AH,2025-10-03T15:41:45.802176,15.98645877,.00068629,97.4653,38.4250,267.9392,92.1099,0,U,57035,999,12863,.21658039E-2,.1011924E-1,.49660831E-3
2023-085AJ,2023-085AJ,2025-10-03T15:10:51.068928,15.18679055,.00084954,97.4816,18.8677,253.1233,106.9070,0,U,57036,999,12732,.85033002E-3,.17605E-3,0
2023-085AK,2023-085AK,2025-10-03T14:58:21.769248,15.18714223,.00077197,97.4813,18.7440,275.4336,84.6017,0,U,57037,999,12731,.80476329E-3,.1667E-3,0
2023-085AL,2023-085AL,2025-10-03T15:25:15.976992,15.25522881,.00071563,97.4841,21.8549,266.2383,93.8036,0,U,57038,999,12751,.10109821E-2,.25633E-3,0
2023-085AM,2023-085AM,2025-10-03T18:59:34.222848,15.97724117,.0006599,97.4659,38.6615,264.8575,95.1948,0,U,57039,999,12865,.21336E-2,.948159E-2,.42284E-3
2023-085AP,2023-085AP,2025-10-04T02:44:03.944256,15.83269514,.0004956,97.4753,38.0422,252.7976,107.2750,0,U,57041,999,12861,.20565E-2,.465395E-2,0
2023-085AQ,2023-085AQ,2025-10-03T21:38:05.311104,16.08904069,.0007737,97.4587,39.0884,263.7942,96.2460,0,U,57042,999,12870,.23075E-2,.1906466E-1,.29732E-2
2023-085AR,2023-085AR,2025-10-03T15:37:50.465856,15.95173742,.00066348,97.4735,38.7062,266.9434,93.1082,0,U,57043,999,12862,.20250154E-2,.785427E-2,.26903635E-3
2023-085AS,2023-085AS,2025-10-03T15:33:52.017408,15.26517254,.00078409,97.4812,22.4879,269.3759,90.6581,0,U,57044,999,12757,.1040001E-2,.27181E-3,0
NUSANTARA TIGA (SATRIA),2023-086A,2025-10-03T04:04:04.759392,1.00269727,.00033462,0.0473,0.0069,285.5447,293.6011,0,U,57045,999,718,0,-.234E-5,0
SHIYAN-25 (SY-25),2023-087A,2025-10-04T03:26:03.132384,16.01049634,.0013363,96.5347,334.4241,268.7619,91.2131,0,U,57047,999,13383,.57938E-5,.2564E-4,.18561E-5
STARLINK-5850,2023-088B,2025-10-03T14:15:37.078560,15.02544748,.00008406,43.0038,241.5055,247.3013,112.7740,0,U,57049,999,12692,.11056764E-3,.1291E-4,0
STARLINK-5845,2023-088C,2025-10-02T23:28:28.486272,15.02565589,.00012688,43.0033,244.6254,280.0561,80.0138,0,U,57050,999,12664,-.4611223E-3,-.6432E-4,0
STARLINK-5839,2023-088D,2025-10-02T15:34:38.023680,15.02542206,.00013427,43.0053,246.4529,266.2989,93.7700,0,U,57051,999,12659,.13917617E-3,.1677E-4,0
STARLINK-5860,2023-088E,2025-10-03T06:00:59.687712,15.02526198,.00012645,43.0039,243.2266,263.8102,96.2596,0,U,57052,999,12668,.10917624E-3,.1271E-4,0
STARLINK-5865,2023-088F,2025-10-03T15:11:22.840800,15.02540363,.00014325,43.0002,240.9346,277.9162,82.1518,0,U,57053,999,12674,.38157735E-4,.312E-5,0
STARLINK-5881,2023-088G,2025-10-03T08:32:29.818752,15.02534189,.00008853,43.0011,242.3012,260.0032,100.0711,0,U,57054,999,12670,.17123463E-3,.211E-4,0
STARLINK-6237,2023-088H,2025-10-03T07:23:54.540096,15.02548595,.00007991,43.0000,242.7979,248.7376,111.3381,0,U,57055,999,12669,.21234607E-3,.2667E-4,0
STARLINK-6353,2023-088J,2025-10-03T08:34:05.389248,15.02535208,.00008702,43.0029,242.3061,270.1350,89.9392,0,U,57056,999,12670,.94707434E-4,.1076E-4,0
STARLINK-6223,2023-088K,2025-10-03T06:53:34.143072,15.02527194,.00009916,43.0055,242.6197,266.5385,93.5344,0,U,57057,999,12669,.12542893E-3,.1491E-4,0
STARLINK-6217,2023-088L,2025-10-03T15:01:47.579232,15.02533882,.00011234,43.0037,240.8870,280.6195,79.4521,0,U,57058,999,12674,.19830181E-3,.2476E-4,0
STARLINK-6211,2023-088M,2025-10-02T15:44:13.655040,15.02537614,.00013968,43.0037,246.4929,269.3610,90.7073,0,U,57059,999,12659,.3453575E-4,.263E-5,0
STARLINK-6227,2023-088N,2025-10-03T14:09:13.253472,15.02535435,.00011304,43.0033,241.4626,272.8368,87.2345,0,U,57060,999,12673,.88832146E-4,.997E-5,0
STARLINK-5869,2023-088P,2025-10-03T14:37:49.294848,15.02536813,.00011369,43.0030,240.7543,276.5820,83.4893,0,U,57061,999,12576,.52034927E-4,.499E-5,0
STARLINK-5536,2023-088Q,2025-10-02T08:16:09.744672,15.02529184,.00013,43.0044,234.5834,262.1425,97.9270,0,U,57062,999,12670,-.75833E-4,-.1228E-4,0
STARLINK-5832,2023-088R,2025-10-03T14:28:14.171520,15.02522779,.00011859,43.0029,240.7023,272.0494,88.0213,0,U,57063,999,12674,.27640468E-3,.3531E-4,0
STARLINK-5822,2023-088S,2025-10-03T08:58:03.770400,15.02528817,.00011298,43.0036,242.4217,274.8527,85.2186,0,U,57064,999,12572,.16130679E-3,.1976E-4,0
STARLINK-5830,2023-088T,2025-10-03T14:14:00.847104,15.02535039,.0001254,43.0015,241.4774,277.2735,82.7964,0,U,57065,999,12575,.79336136E-4,.868E-5,0
STARLINK-5827,2023-088U,2025-10-03T14:33:01.699488,15.02533737,.00012634,43.0027,240.7352,263.4722,96.5977,0,U,57066,999,12576,.1066188E-3,.1237E-4,0
STARLINK-5824,2023-088V,2025-10-03T07:17:31.730208,15.02547561,.00013129,43.0024,242.7476,276.8326,83.2367,0,U,57067,999,12669,-.3098937E-3,-.4388E-4,0
STARLINK-5844,2023-088W,2025-10-03T14:23:26.056032,15.02534079,.00011888,43.0025,240.6806,267.2798,92.7909,0,U,57068,999,12674,.14104326E-3,.1702E-4,0
STARLINK-5821,2023-088X,2025-10-03T06:06:09.353952,15.02535519,.00009648,43.0043,230.2436,273.9031,86.1702,0,U,57069,999,12666,.11933643E-3,.1409E-4,0
STARLINK-5828,2023-088Y,2025-10-03T06:31:43.761792,15.02537250,.00011594,43.0037,230.3778,265.3568,94.7142,0,U,57070,999,12683,.65231503E-4,.678E-5,0
STARLINK-5834,2023-088Z,2025-10-03T06:17:21.558048,15.02522632,.00012255,43.0040,230.3041,262.0178,98.0525,0,U,57071,999,12666,-.17210764E-4,-.436E-5,0
STARLINK-5843,2023-088AA,2025-10-03T06:25:20.443008,15.02529994,.00011786,43.0040,230.3489,262.9600,97.1109,0,U,57072,999,12585,.2896957E-4,.188E-5,0
STARLINK-5838,2023-088AB,2025-10-03T14:28:46.408224,15.02533119,.00010194,43.0036,228.5650,258.1689,101.9039,0,U,57073,999,12590,.11613569E-3,.1365E-4,0
STARLINK-5773,2023-088AC,2025-10-03T06:19:59.924928,15.02534301,.00011003,43.0009,242.4563,246.2708,113.8019,0,U,57074,999,12669,.11447972E-3,.1343E-4,0
STARLINK-5542,2023-088AD,2025-10-03T13:58:24.287520,15.02537189,.00010187,42.9999,228.4059,275.5028,84.5698,0,U,57075,999,12688,.11002115E-3,.1283E-4,0
STARLINK-6155,2023-088AE,2025-10-03T14:20:46.861440,15.02533329,.00011872,43.0036,228.5219,260.7820,99.2888,0,U,57076,999,12671,.10551195E-3,.1222E-4,0
STARLINK-6194,2023-088AF,2025-10-03T14:06:23.441184,15.02531469,.00012745,43.0007,228.4479,265.7621,94.3076,0,U,57077,999,12705,.24562818E-3,.3116E-4,0
